CCSDS_OMM_VERS = 2.0
CREATION_DATE  = 
ORIGINATOR     = 

OBJECT_NAME    = STARLINK-36121
OBJECT_ID      = 2025-286R
CENTER_NAME    = EARTH
REF_FRAME      = TEME
TIME_SYSTEM    = UTC
MEAN_ELEMENT_THEORY = SGP/SGP4

EPOCH          = 2025-12-21T14:00:01.999872
MEAN_MOTION    = 15.74174168
ECCENTRICITY   = .00009749
INCLINATION    = 53.1572
RA_OF_ASC_NODE = 6.0332
ARG_OF_PERICENTER = 74.9818
MEAN_ANOMALY   = 195.1330

EPHEMERIS_TYPE = 0
CLASSIFICATION_TYPE = U
NORAD_CAT_ID   = 66940
ELEMENT_SET_NO = 999
REV_AT_EPOCH   = 341
BSTAR          = -.25744768E-4
MEAN_MOTION_DOT = -.4395E-4
MEAN_MOTION_DDOT = 0

CCSDS_OMM_VERS = 2.0
CREATION_DATE  = 
ORIGINATOR     = 

OBJECT_NAME    = STARLINK-36088
OBJECT_ID      = 2025-286S
CENTER_NAME    = EARTH
REF_FRAME      = TEME
TIME_SYSTEM    = UTC
MEAN_ELEMENT_THEORY = SGP/SGP4

EPOCH          = 2025-12-21T14:00:01.999872
MEAN_MOTION    = 15.74228744
ECCENTRICITY   = .00011312
INCLINATION    = 53.1575
RA_OF_ASC_NODE = 6.0416
ARG_OF_PERICENTER = 70.2713
MEAN_ANOMALY   = 195.9879

EPHEMERIS_TYPE = 0
CLASSIFICATION_TYPE = U
NORAD_CAT_ID   = 66941
ELEMENT_SET_NO = 999
REV_AT_EPOCH   = 341
BSTAR          = -.65795713E-3
MEAN_MOTION_DOT = -.96063E-3
MEAN_MOTION_DDOT = 0

CCSDS_OMM_VERS = 2.0
CREATION_DATE  = 
ORIGINATOR     = 

OBJECT_NAME    = STARLINK-36100
OBJECT_ID      = 2025-286T
CENTER_NAME    = EARTH
REF_FRAME      = TEME
TIME_SYSTEM    = UTC
MEAN_ELEMENT_THEORY = SGP/SGP4

EPOCH          = 2025-12-21T14:00:01.999872
MEAN_MOTION    = 15.74199234
ECCENTRICITY   = .00011413
INCLINATION    = 53.1572
RA_OF_ASC_NODE = 6.0293
ARG_OF_PERICENTER = 83.8919
MEAN_ANOMALY   = 188.0836

EPHEMERIS_TYPE = 0
CLASSIFICATION_TYPE = U
NORAD_CAT_ID   = 66942
ELEMENT_SET_NO = 999
REV_AT_EPOCH   = 334
BSTAR          = .8132587E-5
MEAN_MOTION_DOT = .562E-5
MEAN_MOTION_DDOT = 0

CCSDS_OMM_VERS = 2.0
CREATION_DATE  = 
ORIGINATOR     = 

OBJECT_NAME    = STARLINK-36109
OBJECT_ID      = 2025-286U
CENTER_NAME    = EARTH
REF_FRAME      = TEME
TIME_SYSTEM    = UTC
MEAN_ELEMENT_THEORY = SGP/SGP4

EPOCH          = 2025-12-21T14:00:01.999872
MEAN_MOTION    = 15.74187415
ECCENTRICITY   = .00010547
INCLINATION    = 53.1570
RA_OF_ASC_NODE = 6.0250
ARG_OF_PERICENTER = 86.6244
MEAN_ANOMALY   = 187.3222

EPHEMERIS_TYPE = 0
CLASSIFICATION_TYPE = U
NORAD_CAT_ID   = 66943
ELEMENT_SET_NO = 999
REV_AT_EPOCH   = 334
BSTAR          = -.16815314E-3
MEAN_MOTION_DOT = -.2518E-3
MEAN_MOTION_DDOT = 0

CCSDS_OMM_VERS = 2.0
CREATION_DATE  = 
ORIGINATOR     = 

OBJECT_NAME    = STARLINK-36112
OBJECT_ID      = 2025-286V
CENTER_NAME    = EARTH
REF_FRAME      = TEME
TIME_SYSTEM    = UTC
MEAN_ELEMENT_THEORY = SGP/SGP4

EPOCH          = 2025-12-21T14:00:01.999872
MEAN_MOTION    = 15.74162735
ECCENTRICITY   = .00007303
INCLINATION    = 53.1572
RA_OF_ASC_NODE = 6.0212
ARG_OF_PERICENTER = 71.5918
MEAN_ANOMALY   = 204.2729

EPHEMERIS_TYPE = 0
CLASSIFICATION_TYPE = U
NORAD_CAT_ID   = 66944
ELEMENT_SET_NO = 999
REV_AT_EPOCH   = 341
BSTAR          = .14539427E-3
MEAN_MOTION_DOT = .20693E-3
MEAN_MOTION_DDOT = 0

CCSDS_OMM_VERS = 2.0
CREATION_DATE  = 
ORIGINATOR     = 

OBJECT_NAME    = STARLINK-36110
OBJECT_ID      = 2025-286W
CENTER_NAME    = EARTH
REF_FRAME      = TEME
TIME_SYSTEM    = UTC
MEAN_ELEMENT_THEORY = SGP/SGP4

EPOCH          = 2025-12-21T14:00:01.999872
MEAN_MOTION    = 15.74161303
ECCENTRICITY   = .00010886
INCLINATION    = 53.1569
RA_OF_ASC_NODE = 6.0170
ARG_OF_PERICENTER = 86.3769
MEAN_ANOMALY   = 191.4006

EPHEMERIS_TYPE = 0
CLASSIFICATION_TYPE = U
NORAD_CAT_ID   = 66945
ELEMENT_SET_NO = 999
REV_AT_EPOCH   = 341
BSTAR          = .28497763E-3
MEAN_MOTION_DOT = .41261E-3
MEAN_MOTION_DDOT = 0

CCSDS_OMM_VERS = 2.0
CREATION_DATE  = 
ORIGINATOR     = 

OBJECT_NAME    = STARLINK-36115
OBJECT_ID      = 2025-286X
CENTER_NAME    = EARTH
REF_FRAME      = TEME
TIME_SYSTEM    = UTC
MEAN_ELEMENT_THEORY = SGP/SGP4

EPOCH          = 2025-12-21T14:00:01.999872
MEAN_MOTION    = 15.74179627
ECCENTRICITY   = .0001052
INCLINATION    = 53.1570
RA_OF_ASC_NODE = 6.0128
ARG_OF_PERICENTER = 84.5559
MEAN_ANOMALY   = 195.1362

EPHEMERIS_TYPE = 0
CLASSIFICATION_TYPE = U
NORAD_CAT_ID   = 66946
ELEMENT_SET_NO = 999
REV_AT_EPOCH   = 341
BSTAR          = -.16081844E-4
MEAN_MOTION_DOT = -.2982E-4
MEAN_MOTION_DDOT = 0

CCSDS_OMM_VERS = 2.0
CREATION_DATE  = 
ORIGINATOR     = 

OBJECT_NAME    = STARLINK-36089
OBJECT_ID      = 2025-286Y
CENTER_NAME    = EARTH
REF_FRAME      = TEME
TIME_SYSTEM    = UTC
MEAN_ELEMENT_THEORY = SGP/SGP4

EPOCH          = 2025-12-21T14:00:01.999872
MEAN_MOTION    = 15.74167074
ECCENTRICITY   = .00008072
INCLINATION    = 53.1572
RA_OF_ASC_NODE = 6.0046
ARG_OF_PERICENTER = 75.3589
MEAN_ANOMALY   = 208.1699

EPHEMERIS_TYPE = 0
CLASSIFICATION_TYPE = U
NORAD_CAT_ID   = 66947
ELEMENT_SET_NO = 999
REV_AT_EPOCH   = 341
BSTAR          = .13600752E-3
MEAN_MOTION_DOT = .19316E-3
MEAN_MOTION_DDOT = 0

CCSDS_OMM_VERS = 2.0
CREATION_DATE  = 
ORIGINATOR     = 

OBJECT_NAME    = STARLINK-36116
OBJECT_ID      = 2025-286Z
CENTER_NAME    = EARTH
REF_FRAME      = TEME
TIME_SYSTEM    = UTC
MEAN_ELEMENT_THEORY = SGP/SGP4

EPOCH          = 2025-12-21T14:00:01.999872
MEAN_MOTION    = 15.74167536
ECCENTRICITY   = .00007237
INCLINATION    = 53.1574
RA_OF_ASC_NODE = 6.0089
ARG_OF_PERICENTER = 81.3136
MEAN_ANOMALY   = 200.3041

EPHEMERIS_TYPE = 0
CLASSIFICATION_TYPE = U
NORAD_CAT_ID   = 66948
ELEMENT_SET_NO = 999
REV_AT_EPOCH   = 341
BSTAR          = .91440502E-4
MEAN_MOTION_DOT = .12771E-3
MEAN_MOTION_DDOT = 0

CCSDS_OMM_VERS = 2.0
CREATION_DATE  = 
ORIGINATOR     = 

OBJECT_NAME    = STARLINK-36096
OBJECT_ID      = 2025-286AA
CENTER_NAME    = EARTH
REF_FRAME      = TEME
TIME_SYSTEM    = UTC
MEAN_ELEMENT_THEORY = SGP/SGP4

EPOCH          = 2025-12-21T14:00:01.999872
MEAN_MOTION    = 15.74189433
ECCENTRICITY   = .00010004
INCLINATION    = 53.1573
RA_OF_ASC_NODE = 6.0011
ARG_OF_PERICENTER = 83.7655
MEAN_ANOMALY   = 201.6750

EPHEMERIS_TYPE = 0
CLASSIFICATION_TYPE = U
NORAD_CAT_ID   = 66949
ELEMENT_SET_NO = 999
REV_AT_EPOCH   = 341
BSTAR          = -.61422776E-4
MEAN_MOTION_DOT = -.9614E-4
MEAN_MOTION_DDOT = 0

CCSDS_OMM_VERS = 2.0
CREATION_DATE  = 
ORIGINATOR     = 

OBJECT_NAME    = STARLINK-36111
OBJECT_ID      = 2025-286AB
CENTER_NAME    = EARTH
REF_FRAME      = TEME
TIME_SYSTEM    = UTC
MEAN_ELEMENT_THEORY = SGP/SGP4

EPOCH          = 2025-12-21T14:00:01.999872
MEAN_MOTION    = 15.74237720
ECCENTRICITY   = .0001098
INCLINATION    = 53.1574
RA_OF_ASC_NODE = 5.9927
ARG_OF_PERICENTER = 95.1216
MEAN_ANOMALY   = 194.1272

EPHEMERIS_TYPE = 0
CLASSIFICATION_TYPE = U
NORAD_CAT_ID   = 66950
ELEMENT_SET_NO = 999
REV_AT_EPOCH   = 341
BSTAR          = -.54993174E-3
MEAN_MOTION_DOT = -.80571E-3
MEAN_MOTION_DDOT = 0

CCSDS_OMM_VERS = 2.0
CREATION_DATE  = 
ORIGINATOR     = 

OBJECT_NAME    = STARLINK-35999
OBJECT_ID      = 2025-286AC
CENTER_NAME    = EARTH
REF_FRAME      = TEME
TIME_SYSTEM    = UTC
MEAN_ELEMENT_THEORY = SGP/SGP4

EPOCH          = 2025-12-21T14:00:01.999872
MEAN_MOTION    = 15.74198432
ECCENTRICITY   = .00009926
INCLINATION    = 53.1577
RA_OF_ASC_NODE = 5.9887
ARG_OF_PERICENTER = 82.2774
MEAN_ANOMALY   = 208.9241

EPHEMERIS_TYPE = 0
CLASSIFICATION_TYPE = U
NORAD_CAT_ID   = 66951
ELEMENT_SET_NO = 999
REV_AT_EPOCH   = 341
BSTAR          = -.17736949E-3
MEAN_MOTION_DOT = -.26534E-3
MEAN_MOTION_DDOT = 0

