STARLINK-36121          
1 66940U 25286R   25355.58335648 -.00004395  00000+0 -25745-4 0  9999
2 66940  53.1572   6.0332 0000974  74.9818 195.1330 15.74174168  3415
STARLINK-36088          
1 66941U 25286S   25355.58335648 -.00096063  00000+0 -65796-3 0  9992
2 66941  53.1575   6.0416 0001131  70.2713 195.9879 15.74228744  3417
STARLINK-36100          
1 66942U 25286T   25355.58335648  .00000562  00000+0  81326-5 0  9999
2 66942  53.1572   6.0293 0001141  83.8919 188.0836 15.74199234  3346
STARLINK-36109          
1 66943U 25286U   25355.58335648 -.00025180  00000+0 -16815-3 0  9994
2 66943  53.1570   6.0250 0001054  86.6244 187.3222 15.74187415  3342
STARLINK-36112          
1 66944U 25286V   25355.58335648  .00020693  00000+0  14539-3 0  9998
2 66944  53.1572   6.0212 0000730  71.5918 204.2729 15.74162735  3411
STARLINK-36110          
1 66945U 25286W   25355.58335648  .00041261  00000+0  28498-3 0  9992
2 66945  53.1569   6.0170 0001088  86.3769 191.4006 15.74161303  3411
STARLINK-36115          
1 66946U 25286X   25355.58335648 -.00002982  00000+0 -16082-4 0  9999
2 66946  53.1570   6.0128 0001052  84.5559 195.1362 15.74179627  3419
STARLINK-36089          
1 66947U 25286Y   25355.58335648  .00019316  00000+0  13601-3 0  9990
2 66947  53.1572   6.0046 0000807  75.3589 208.1699 15.74167074  3410
STARLINK-36116          
1 66948U 25286Z   25355.58335648  .00012771  00000+0  91441-4 0  9998
2 66948  53.1574   6.0089 0000723  81.3136 200.3041 15.74167536  3410
STARLINK-36096          
1 66949U 25286AA  25355.58335648 -.00009614  00000+0 -61423-4 0  9990
2 66949  53.1573   6.0011 0001000  83.7655 201.6750 15.74189433  3417
STARLINK-36111          
1 66950U 25286AB  25355.58335648 -.00080571  00000+0 -54993-3 0  9996
2 66950  53.1574   5.9927 0001098  95.1216 194.1272 15.74237720  3419
STARLINK-35999          
1 66951U 25286AC  25355.58335648 -.00026534  00000+0 -17737-3 0  9991
2 66951  53.1577   5.9887 0000992  82.2774 208.9241 15.74198432  3412
